GLOBALSTAR M024         
1 25883U 99043A   25030.78336517 -.00000082  00000+0 -59399-3 0  9990
2 25883  52.0057 330.6556 0001009 230.0863 142.2984 11.10166275 99601
GLOBALSTAR M027         
1 25884U 99043B   25030.46457070 -.00000005  00000+0  22034-2 0  9993
2 25884  52.0229  45.4513 0021587 129.3624 230.9086 11.04370983126026
GLOBALSTAR M054         
1 25885U 99043C   25031.18721154 -.00000081  00000+0 -25206-3 0  9991
2 25885  52.0110 194.1333 0004714 308.0611 223.0156 11.39216293103761
GLOBALSTAR M053         
1 25886U 99043D   25030.79521403 -.00000062  00000+0  18298-3 0  9994
2 25886  51.9973 134.5436 0003687 191.7150 345.9391 11.27662610103942
GLOBALSTAR M058         
1 25907U 99049A   25030.59010986  .00000043  00000+0  17152-2 0  9996
2 25907  51.9937 116.5948 0001680  38.1388 321.9565 11.93195958525115
GLOBALSTAR M050         
1 25908U 99049B   25030.53853394 -.00000133  00000+0 -50036-3 0  9990
2 25908  51.9980 134.6910 0010062 117.9259 255.5614 12.07448626131569
GLOBALSTAR M033         
1 25909U 99049C   25030.65996391 -.00000174  00000+0 -78915-3 0  9990
2 25909  51.9940  15.6884 0013142 340.9583  19.0772 12.20290571518953
GLOBALSTAR M055         
1 25910U 99049D   25030.28960277 -.00000075  00000+0  16179-3 0  9998
2 25910  52.0038  34.1919 0007028 203.7374 156.3154 12.29419819151320
